NORAD_CAT_ID,OBJECT_NAME,OBJECT_TYPE,EPOCH,MEAN_MOTION,ECCENTRICITY,INCLINATION,RA_OF_ASC_NODE,ARG_OF_PERICENTER,MEAN_ANOMALY,BSTAR,MEAN_MOTION_DOT,MEAN_MOTION_DDOT,TLE_LINE0,TLE_LINE1,TLE_LINE2,SEMIMAJOR_AXIS,PERIOD,APOGEE,PERIGEE,DECAYED
53269.0,STARLINK-4057,PAYLOAD,2023-11-01 15:26:00,15.08841165,0.0001459,53.2168,80.5317,91.0778,269.0381,0.00016869,2.398e-05,0.0,0 STARLINK-4057,1 53269U 22086AD  23305.64305624  .00002398  00000-0  16869-3 0  9991,2 53269  53.2168  80.5317 0001459  91.0778 269.0381 15.08841165 71519,6917.877,95.437,540.751,538.733,0.0
53269.0,STARLINK-4057,PAYLOAD,2023-11-02 12:06:00,15.08841635,0.0001484,53.2174,76.6663,86.7746,273.3416,0.00014532,2.026e-05,0.0,0 STARLINK-4057,1 53269U 22086AD  23306.50417730  .00002026  00000-0  14532-3 0  9992,2 53269  53.2174  76.6663 0001484  86.7746 273.3416 15.08841635 71463,6917.875,95.437,540.767,538.714,0.0
53269.0,STARLINK-4057,PAYLOAD,2023-11-02 15:16:47,15.08842213,0.0001344,53.2183,76.0716,87.9281,272.1865,0.00016215,2.294e-05,0.0,0 STARLINK-4057,1 53269U 22086AD  23306.63665681  .00002294  00000-0  16215-3 0  9993,2 53269  53.2183  76.0716 0001344  87.9281 272.1865 15.08842213 71668,6917.874,95.437,540.668,538.809,0.0
53269.0,STARLINK-4057,PAYLOAD,2023-11-03 08:46:01,15.08838306,0.0001561,53.2177,72.8003,88.5698,271.5473,6.5767e-05,7.59e-06,0.0,0 STARLINK-4057,1 53269U 22086AD  23307.36529979  .00000759  00000-0  65767-4 0  9994,2 53269  53.2177  72.8003 0001561  88.5698 271.5473 15.08838306 71592,6917.886,95.438,540.83,538.671,0.0
53269.0,STARLINK-4057,PAYLOAD,2023-11-03 15:07:34,15.08843249,0.0001495,53.2179,71.6107,88.0714,272.045,0.00013484,1.859e-05,0.0,0 STARLINK-4057,1 53269U 22086AD  23307.63025724  .00001859  00000-0  13484-3 0  9993,2 53269  53.2179  71.6107 0001495  88.0714 272.0450 15.08843249 71814,6917.87,95.437,540.77,538.701,0.0
53269.0,STARLINK-4057,PAYLOAD,2023-11-04 14:58:21,15.08846388,0.0001347,53.2183,67.1513,86.6616,273.453,0.00012472,1.698e-05,0.0,0 STARLINK-4057,1 53269U 22086AD  23308.62385476  .00001698  00000-0  12472-3 0  9993,2 53269  53.2183  67.1513 0001347  86.6616 273.4530 15.08846388 71968,6917.861,95.437,540.658,538.794,0.0
53269.0,STARLINK-4057,PAYLOAD,2023-11-05 11:38:21,15.08845353,0.0001507,53.2191,63.2836,80.3017,279.8145,9.4282e-05,1.213e-05,0.0,0 STARLINK-4057,1 53269U 22086AD  23309.48497622  .00001213  00000-0  94282-4 0  9998,2 53269  53.2191  63.2836 0001507  80.3017 279.8145 15.08845353 71914,6917.864,95.437,540.772,538.687,0.0
53269.0,STARLINK-4057,PAYLOAD,2023-11-05 14:49:07,15.08855355,0.0001289,53.2191,62.692,89.2164,270.8976,0.00019188,2.768e-05,0.0,0 STARLINK-4057,1 53269U 22086AD  23309.61744620  .00002768  00000-0  19188-3 0  9993,2 53269  53.2191  62.6920 0001289  89.2164 270.8976 15.08855355 72118,6917.833,95.437,540.59,538.807,0.0
53269.0,STARLINK-4057,PAYLOAD,2023-11-06 11:29:10,15.08811042,0.0002617,53.2191,58.8253,44.6279,315.4924,-0.00045861,-7.574e-05,0.0,0 STARLINK-4057,1 53269U 22086AD  23310.47859107 -.00007574  00000-0 -45861-3 0  9995,2 53269  53.2191  58.8253 0002617  44.6279 315.4924 15.08811042 72060,6917.969,95.439,541.644,538.023,0.0
53269.0,STARLINK-4057,PAYLOAD,2023-11-06 14:39:57,15.08794965,0.0001196,53.217,58.231,85.3405,274.7724,-0.00071194,-0.00011586,0.0,0 STARLINK-4057,1 53269U 22086AD  23310.61107717 -.00011586  00000-0 -71194-3 0  9990,2 53269  53.2170  58.2310 0001196  85.3405 274.7724 15.08794965 72260,6918.018,95.44,540.71,539.056,0.0
53269.0,STARLINK-4057,PAYLOAD,2023-11-07 00:12:16,15.08798961,0.0001453,53.219,56.4472,89.4011,270.7148,-0.00050878,-8.367e-05,0.0,0 STARLINK-4057,1 53269U 22086AD  23311.00852395 -.00008367  00000-0 -50878-3 0  9992,2 53269  53.2190  56.4472 0001453  89.4011 270.7148 15.08798961 72148,6918.006,95.44,540.876,538.866,0.0
53269.0,STARLINK-4057,PAYLOAD,2023-11-07 11:19:58,15.08816707,0.0001565,53.2189,54.3651,84.8368,275.2803,-0.000186,-3.245e-05,0.0,0 STARLINK-4057,1 53269U 22086AD  23311.47220328 -.00003245  00000-0 -18600-3 0  9995,2 53269  53.2189  54.3651 0001565  84.8368 275.2803 15.08816707 72215,6917.952,95.439,540.899,538.734,0.0
53269.0,STARLINK-4057,PAYLOAD,2023-11-07 14:30:44,15.08820953,0.0001533,53.2186,53.77,82.7181,277.3986,-0.00014698,-2.625e-05,0.0,0 STARLINK-4057,1 53269U 22086AD  23311.60468300 -.00002625  00000-0 -14698-3 0  9998,2 53269  53.2186  53.7700 0001533  82.7181 277.3986 15.08820953 72410,6917.939,95.439,540.864,538.743,0.0
53269.0,STARLINK-4057,PAYLOAD,2023-11-08 11:10:44,15.0884268,0.000127,53.2183,49.9062,99.5133,260.6003,0.00035798,5.414e-05,0.0,0 STARLINK-4057,1 53269U 22086AD  23312.46579749  .00005414  00000-0  35798-3 0  9994,2 53269  53.2183  49.9062 0001270  99.5133 260.6003 15.08842680 72366,6917.872,95.437,540.616,538.859,0.0
53269.0,STARLINK-4057,PAYLOAD,2023-11-08 14:21:31,15.08843617,0.0001582,53.219,49.3103,70.9736,289.1428,0.00092833,0.00014519,0.0,0 STARLINK-4057,1 53269U 22086AD  23312.59828147  .00014519  00000-0  92833-3 0  9996,2 53269  53.2190  49.3103 0001582  70.9736 289.1428 15.08843617 72562,6917.869,95.437,540.829,538.64,0.0
53269.0,STARLINK-4057,PAYLOAD,2023-11-09 12:36:54,15.0885265,0.0001655,53.2192,45.1482,90.1404,269.9777,0.0002332,3.427e-05,0.0,0 STARLINK-4057,1 53269U 22086AD  23313.52563493  .00003427  00000-0  23320-3 0  9991,2 53269  53.2192  45.1482 0001655  90.1404 269.9777 15.08852650 72521,6917.842,95.437,540.852,538.562,0.0
53269.0,STARLINK-4057,PAYLOAD,2023-11-10 12:27:41,15.08856629,0.0001568,53.2203,40.6863,87.4246,272.6925,-8.9662e-05,-1.715e-05,0.0,0 STARLINK-4057,1 53269U 22086AD  23314.51923032 -.00001715  00000-0 -89662-4 0  9992,2 53269  53.2203  40.6863 0001568  87.4246 272.6925 15.08856629 72675,6917.83,95.437,540.779,538.61,0.0
53269.0,STARLINK-4057,PAYLOAD,2023-11-11 12:18:28,15.08850002,0.0001414,53.219,36.2246,97.3482,262.767,-1.532e-05,-5.32e-06,0.0,0 STARLINK-4057,1 53269U 22086AD  23315.51282642 -.00000532  00000-0 -15320-4 0  9994,2 53269  53.2190  36.2246 0001414  97.3482 262.7670 15.08850002 72821,6917.85,95.437,540.693,538.737,0.0
53269.0,STARLINK-4057,PAYLOAD,2023-11-12 10:33:52,15.08839173,0.0001565,53.2191,32.065,85.0062,275.1109,7.3654e-05,8.84e-06,0.0,0 STARLINK-4057,1 53269U 22086AD  23316.44019172  .00000884  00000-0  73654-4 0  9995,2 53269  53.2191  32.0650 0001565  85.0062 275.1109 15.08839173 72966,6917.883,95.438,540.831,538.665,0.0
53269.0,STARLINK-4057,PAYLOAD,2023-11-13 12:00:02,15.08845817,0.0001437,53.2184,27.3069,79.7635,280.3519,0.00011264,1.505e-05,0.0,0 STARLINK-4057,1 53269U 22086AD  23317.50002653  .00001505  00000-0  11264-3 0  9998,2 53269  53.2184  27.3069 0001437  79.7635 280.3519 15.08845817 73127,6917.863,95.437,540.722,538.734,0.0
53269.0,STARLINK-4057,PAYLOAD,2023-11-13 21:32:21,15.08838384,0.000143,53.2187,25.5252,94.0022,266.1134,-4.2392e-06,-3.55e-06,0.0,0 STARLINK-4057,1 53269U 22086AD  23317.89747382 -.00000355  00000-0 -42392-5 0  9997,2 53269  53.2187  25.5252 0001430  94.0022 266.1134 15.08838384 73369,6917.885,95.438,540.74,538.761,0.0
53269.0,STARLINK-4057,PAYLOAD,2023-11-14 13:26:13,15.0884277,0.000164,53.2197,22.5519,100.4447,259.673,-3.3184e-05,-8.16e-06,0.0,0 STARLINK-4057,1 53269U 22086AD  23318.55987382 -.00000816  00000-0 -33184-4 0  9997,2 53269  53.2197  22.5519 0001640 100.4447 259.6730 15.08842770 73463,6917.872,95.437,540.871,538.602,0.0
53269.0,STARLINK-4057,PAYLOAD,2023-11-14 21:23:08,15.08838357,0.0001606,53.2197,21.0609,87.4819,272.6357,3.2249e-05,2.25e-06,0.0,0 STARLINK-4057,1 53269U 22086AD  23318.89107522  .00000225  00000-0  32249-4 0  9997,2 53269  53.2197  21.0609 0001606  87.4819 272.6357 15.08838357 73518,6917.885,95.438,540.861,538.639,0.0
53269.0,STARLINK-4057,PAYLOAD,2023-11-15 11:41:37,15.0884148,0.0001517,53.2196,18.3847,80.8413,279.275,2.8913e-05,1.72e-06,0.0,0 STARLINK-4057,1 53269U 22086AD  23319.48723387  .00000172  00000-0  28913-4 0  9990,2 53269  53.2196  18.3847 0001517  80.8413 279.2750 15.08841480 73429,6917.876,95.437,540.79,538.691,0.0
53269.0,STARLINK-4057,PAYLOAD,2023-11-15 13:17:00,15.08841963,0.000153,53.2194,18.0857,76.6431,283.4731,3.5801e-05,2.82e-06,0.0,0 STARLINK-4057,1 53269U 22086AD  23319.55347338  .00000282  00000-0  35801-4 0  9992,2 53269  53.2194  18.0857 0001530  76.6431 283.4731 15.08841963 73616,6917.874,95.437,540.798,538.681,0.0
53269.0,STARLINK-4057,PAYLOAD,2023-11-15 21:13:55,15.08844432,0.0001441,53.2191,16.602,86.5462,273.5695,-1.0581e-05,-4.56e-06,0.0,0 STARLINK-4057,1 53269U 22086AD  23319.88467236 -.00000456  00000-0 -10581-4 0  9991,2 53269  53.2191  16.6020 0001441  86.5462 273.5695 15.08844432 73662,6917.867,95.437,540.729,538.735,0.0
53269.0,STARLINK-4057,PAYLOAD,2023-11-16 08:21:38,15.08835653,0.0001494,53.2196,14.5204,89.3598,270.7565,9.2642e-05,1.187e-05,0.0,0 STARLINK-4057,1 53269U 22086AD  23320.34835660  .00001187  00000-0  92642-4 0  9992,2 53269  53.2196  14.5204 0001494  89.3598 270.7565 15.08835653 73735,6917.894,95.438,540.792,538.725,0.0
53269.0,STARLINK-4057,PAYLOAD,2023-11-16 21:04:43,15.08836841,0.0001565,53.2194,12.1411,91.4457,268.6714,4.1009e-05,3.65e-06,0.0,0 STARLINK-4057,1 53269U 22086AD  23320.87827809  .00000365  00000-0  41009-4 0  9994,2 53269  53.2194  12.1411 0001565  91.4457 268.6714 15.08836841 73815,6917.89,95.438,540.838,538.672,0.0
53269.0,STARLINK-4057,PAYLOAD,2023-11-17 03:26:15,15.08826685,0.0001421,53.2178,10.9508,90.4208,269.6947,0.00016858,2.395e-05,0.0,0 STARLINK-4057,1 53269U 22086AD  23321.14324028  .00002395  00000-0  16858-3 0  9998,2 53269  53.2178  10.9508 0001421  90.4208 269.6947 15.08826685 73672,6917.921,95.438,540.769,538.803,0.0
53269.0,STARLINK-4057,PAYLOAD,2023-11-17 09:47:48,15.08839459,0.0001417,53.2178,9.7615,89.8537,270.2617,2.2753e-05,7.4e-07,0.0,0 STARLINK-4057,1 53269U 22086AD  23321.40819700  .00000074  00000-0  22753-4 0  9997,2 53269  53.2178   9.7615 0001417  89.8537 270.2617 15.08839459 73719,6917.882,95.438,540.727,538.767,0.0
